{
  "links" : {
    "next" : "https://api.nasa.gov/neo/rest/v1/feed?start_date=2000-02-16&end_date=2000-02-16&detailed=true&api_key=t0TVs3DtDT2H8Oy2Zy8m2eVrNsAVKAexjcZXUckd",
    "prev" : "https://api.nasa.gov/neo/rest/v1/feed?start_date=2000-02-14&end_date=2000-02-14&detailed=true&api_key=t0TVs3DtDT2H8Oy2Zy8m2eVrNsAVKAexjcZXUckd",
    "self" : "https://api.nasa.gov/neo/rest/v1/feed?start_date=2000-02-15&end_date=2000-02-15&detailed=true&api_key=t0TVs3DtDT2H8Oy2Zy8m2eVrNsAVKAexjcZXUckd"
  },
  "element_count" : 7,
  "near_earth_objects" : {
    "2000-02-15" : [ {
      "links" : {
        "self" : "https://api.nasa.gov/neo/rest/v1/neo/2098943?api_key=t0TVs3DtDT2H8Oy2Zy8m2eVrNsAVKAexjcZXUckd"
      },
      "neo_reference_id" : "2098943",
      "name" : "98943 (2001 CC21)",
      "nasa_jpl_url" : "http://ssd.jpl.nasa.gov/sbdb.cgi?sstr=2098943",
      "absolute_magnitude_h" : 18.5,
      "estimated_diameter" : {
        "kilometers" : {
          "estimated_diameter_min" : 0.5303407233,
          "estimated_diameter_max" : 1.1858779086
        },
        "meters" : {
          "estimated_diameter_min" : 530.3407233187,
          "estimated_diameter_max" : 1185.8779085771
        },
        "miles" : {
          "estimated_diameter_min" : 0.3295383456,
          "estimated_diameter_max" : 0.7368701419
        },
        "feet" : {
          "estimated_diameter_min" : 1739.963058693,
          "estimated_diameter_max" : 3890.675677576
        }
      },
      "is_potentially_hazardous_asteroid" : false,
      "close_approach_data" : [ {
        "close_approach_date" : "2000-02-15",
        "epoch_date_close_approach" : 950601600000,
        "relative_velocity" : {
          "kilometers_per_second" : "18.7912973631",
          "kilometers_per_hour" : "67648.670507273",
          "miles_per_hour" : "42034.2530715886"
        },
        "miss_distance" : {
          "astronomical" : "0.3962458243",
          "lunar" : "154.1396331787",
          "kilometers" : "59277536",
          "miles" : "36833352"
        },
        "orbiting_body" : "Earth"
      } ],
      "orbital_data" : {
        "orbit_id" : "122",
        "orbit_determination_date" : "2017-04-06 09:28:14",
        "orbit_uncertainty" : "0",
        "minimum_orbit_intersection" : ".0829618",
        "jupiter_tisserand_invariant" : "5.905",
        "epoch_osculation" : "2458000.5",
        "eccentricity" : ".2193543019266598",
        "semi_major_axis" : "1.032551182878999",
        "inclination" : "4.808517675236946",
        "ascending_node_longitude" : "75.57946496070231",
        "orbital_period" : "383.2355685785893",
        "perihelion_distance" : ".8060566389550293",
        "perihelion_argument" : "179.3292065807419",
        "aphelion_distance" : "1.259045726802969",
        "perihelion_time" : "2458169.135895475289",
        "mean_anomaly" : "201.5884971317461",
        "mean_motion" : ".939370010292183",
        "equinox" : "J2000"
      }
    }, {
      "links" : {
        "self" : "https://api.nasa.gov/neo/rest/v1/neo/2385252?api_key=t0TVs3DtDT2H8Oy2Zy8m2eVrNsAVKAexjcZXUckd"
      },
      "neo_reference_id" : "2385252",
      "name" : "385252 (2001 EB18)",
      "nasa_jpl_url" : "http://ssd.jpl.nasa.gov/sbdb.cgi?sstr=2385252",
      "absolute_magnitude_h" : 19.3,
      "estimated_diameter" : {
        "kilometers" : {
          "estimated_diameter_min" : 0.3669061375,
          "estimated_diameter_max" : 0.8204270649
        },
        "meters" : {
          "estimated_diameter_min" : 366.9061375314,
          "estimated_diameter_max" : 820.4270648822
        },
        "miles" : {
          "estimated_diameter_min" : 0.2279848336,
          "estimated_diameter_max" : 0.5097895857
        },
        "feet" : {
          "estimated_diameter_min" : 1203.7603322587,
          "estimated_diameter_max" : 2691.6899315481
        }
      },
      "is_potentially_hazardous_asteroid" : true,
      "close_approach_data" : [ {
        "close_approach_date" : "2000-02-15",
        "epoch_date_close_approach" : 950601600000,
        "relative_velocity" : {
          "kilometers_per_second" : "30.0483744976",
          "kilometers_per_hour" : "108174.1481913226",
          "miles_per_hour" : "67215.2089136582"
        },
        "miss_distance" : {
          "astronomical" : "0.3692949487",
          "lunar" : "143.6557312012",
          "kilometers" : "55245736",
          "miles" : "34328108"
        },
        "orbiting_body" : "Earth"
      } ],
      "orbital_data" : {
        "orbit_id" : "29",
        "orbit_determination_date" : "2017-04-06 09:22:12",
        "orbit_uncertainty" : "0",
        "minimum_orbit_intersection" : ".0289041",
        "jupiter_tisserand_invariant" : "5.509",
        "epoch_osculation" : "2458000.5",
        "eccentricity" : ".1836939533965696",
        "semi_major_axis" : "1.052973998611236",
        "inclination" : "50.06224641263285",
        "ascending_node_longitude" : "155.4809431198817",
        "orbital_period" : "394.6616230640835",
        "perihelion_distance" : ".859549041982544",
        "perihelion_argument" : "101.9155473600335",
        "aphelion_distance" : "1.246398955239928",
        "perihelion_time" : "2457978.719960687710",
        "mean_anomaly" : "19.86718164170532",
        "mean_motion" : ".9121738191948414",
        "equinox" : "J2000"
      }
    }, {
      "links" : {
        "self" : "https://api.nasa.gov/neo/rest/v1/neo/2455415?api_key=t0TVs3DtDT2H8Oy2Zy8m2eVrNsAVKAexjcZXUckd"
      },
      "neo_reference_id" : "2455415",
      "name" : "455415 (2003 GA)",
      "nasa_jpl_url" : "http://ssd.jpl.nasa.gov/sbdb.cgi?sstr=2455415",
      "absolute_magnitude_h" : 21.2,
      "estimated_diameter" : {
        "kilometers" : {
          "estimated_diameter_min" : 0.1529519353,
          "estimated_diameter_max" : 0.3420109247
        },
        "meters" : {
          "estimated_diameter_min" : 152.9519353442,
          "estimated_diameter_max" : 342.0109247198
        },
        "miles" : {
          "estimated_diameter_min" : 0.095039897,
          "estimated_diameter_max" : 0.2125156703
        },
        "feet" : {
          "estimated_diameter_min" : 501.8108275547,
          "estimated_diameter_max" : 1122.0831222578
        }
      },
      "is_potentially_hazardous_asteroid" : false,
      "close_approach_data" : [ {
        "close_approach_date" : "2000-02-15",
        "epoch_date_close_approach" : 950601600000,
        "relative_velocity" : {
          "kilometers_per_second" : "6.0452612253",
          "kilometers_per_hour" : "21762.9404109191",
          "miles_per_hour" : "13522.6448347736"
        },
        "miss_distance" : {
          "astronomical" : "0.4030783142",
          "lunar" : "156.7974700928",
          "kilometers" : "60299660",
          "miles" : "37468472"
        },
        "orbiting_body" : "Earth"
      } ],
      "orbital_data" : {
        "orbit_id" : "74",
        "orbit_determination_date" : "2017-04-06 09:19:58",
        "orbit_uncertainty" : "0",
        "minimum_orbit_intersection" : ".06141",
        "jupiter_tisserand_invariant" : "5.031",
        "epoch_osculation" : "2458000.5",
        "eccentricity" : ".1914490911322442",
        "semi_major_axis" : "1.281816370294313",
        "inclination" : "3.842261865269067",
        "ascending_node_longitude" : "192.9162213350079",
        "orbital_period" : "530.0747869527149",
        "perihelion_distance" : "1.036413791203034",
        "perihelion_argument" : "66.77977451468207",
        "aphelion_distance" : "1.527218949385591",
        "perihelion_time" : "2458097.317858247507",
        "mean_anomaly" : "294.2462048242795",
        "mean_motion" : ".6791494499664131",
        "equinox" : "J2000"
      }
    } ]
  }
}